ONEWEB-0153             
1 48044U 21025C   24093.81635721  .00000096  00000+0  22902-3 0  9993
2 48044  87.8904 120.5466 0002002  97.0546 263.0811 13.13471133147827
ONEWEB-0154             
1 48045U 21025D   24093.81318474  .00000086  00000+0  20175-3 0  9996
2 48045  87.8902 120.5610 0001929  95.0239 265.1110 13.13471476147781
ONEWEB-0116             
1 48046U 21025E   24093.77827654 -.00000102  00000+0 -31524-3 0  9998
2 48046  87.8907 120.5343 0001844  87.6184 272.5157 13.13469603147920
ONEWEB-0150             
1 48047U 21025F   24093.60052694  .00000308  00000+0  80749-3 0  9994
2 48047  87.8900 120.5933 0002138  95.3426 264.7947 13.13470473147793
ONEWEB-0107             
1 48048U 21025G   24093.83065452  .00000374  00000+0  98833-3 0  9992
2 48048  87.8900 120.5454 0002272  98.6522 261.4865 13.13470165147807
ONEWEB-0101             
1 48049U 21025H   24093.79411917 -.00002410  00000+0 -66341-2 0  9992
2 48049  87.8912 120.5635 0001870  98.3072 261.8270 13.13482789147777
ONEWEB-0113             
1 48050U 21025J   24093.77192923  .00000117  00000+0  28640-3 0  9996
2 48050  87.8905 120.5511 0001862  88.4380 271.6962 13.13469582147859
ONEWEB-0112             
1 48051U 21025K   24093.83541030  .00000375  00000+0  99063-3 0  9994
2 48051  87.8898 120.5423 0002058  91.7728 268.3637 13.13470250147872
